<?xml version="1.0" encoding="UTF-8"?>
<kml xmlns="http://www.opengis.net/kml/2.2">
<Document>
	<name>Границы охотничьих угодий ОАО «Волга-Дельта»</name>
	<description>Каралатское охотничье-рыболовное хозяйство, ~27 000 га. Астраханская обл., Камызякский р-н, дельта Волги.</description>
	<Style id="grounds">
		<LineStyle>
			<color>ff2a38e5</color>
			<width>3</width>
		</LineStyle>
		<PolyStyle>
			<color>2a2a38e5</color>
		</PolyStyle>
	</Style>
	<Style id="point">
		<IconStyle>
			<color>ff2a38e5</color>
			<scale>1.1</scale>
		</IconStyle>
	</Style>
	<Placemark>
		<name>Охотничьи угодья «Волга-Дельта» — 27 000 га</name>
		<styleUrl>#grounds</styleUrl>
		<Polygon>
			<outerBoundaryIs>
				<LinearRing>
					<coordinates>
						48.3155,45.9060,0
						48.3030,45.8850,0
						48.2890,45.8580,0
						48.2810,45.8320,0
						48.2820,45.8060,0
						48.2900,45.7860,0
						48.2960,45.7680,0
						48.2985,45.7525,0
						48.3081,45.7494,0
						48.3171,45.7425,0
						48.3248,45.7306,0
						48.3390,45.7021,0
						48.3555,45.6894,0
						48.3804,45.6754,0
						48.3857,45.6678,0
						48.3871,45.6594,0
						48.3915,45.6519,0
						48.4052,45.6461,0
						48.4119,45.6414,0
						48.4233,45.6375,0
						48.4343,45.6284,0
						48.4374,45.6232,0
						48.4416,45.6059,0
						48.4280,45.5927,0
						48.4215,45.5890,0
						48.5508,45.5180,0
						48.5254,45.5810,0
						48.5226,45.5870,0
						48.5193,45.5937,0
						48.5169,45.5987,0
						48.5145,45.6043,0
						48.5118,45.6102,0
						48.4991,45.6369,0
						48.4883,45.6598,0
						48.4793,45.6786,0
						48.4706,45.6966,0
						48.4678,45.7086,0
						48.4649,45.7193,0
						48.4625,45.7281,0
						48.4618,45.7314,0
						48.4616,45.7327,0
						48.4620,45.7346,0
						48.4621,45.7354,0
						48.4577,45.7430,0
						48.4483,45.7588,0
						48.4467,45.7618,0
						48.4461,45.7627,0
						48.4415,45.7701,0
						48.4407,45.7716,0
						48.4399,45.7726,0
						48.4389,45.7739,0
						48.4383,45.7759,0
						48.4016,45.8371,0
						48.4010,45.8383,0
						48.3780,45.8620,0
						48.3480,45.8840,0
						48.3155,45.9060,0
					</coordinates>
				</LinearRing>
			</outerBoundaryIs>
		</Polygon>
	</Placemark>
	<Placemark>
		<name>Точка № 1 — исток Рытого Колочного канала</name>
		<styleUrl>#point</styleUrl>
		<Point><coordinates>48.3155,45.9060,0</coordinates></Point>
	</Placemark>
	<Placemark>
		<name>Точка № 2 — акватория Каспийского моря</name>
		<styleUrl>#point</styleUrl>
		<Point><coordinates>48.5508,45.5180,0</coordinates></Point>
	</Placemark>
	<Placemark>
		<name>с. Каралат</name>
		<Point><coordinates>48.3069,45.9181,0</coordinates></Point>
	</Placemark>
	<Placemark>
		<name>Турбаза «Волга-Дельта»</name>
		<Point><coordinates>48.4485,45.7569,0</coordinates></Point>
	</Placemark>
	<Placemark>
		<name>о. Галкин</name>
		<Point><coordinates>48.3800,45.6650,0</coordinates></Point>
	</Placemark>
</Document>
</kml>
